{"type": "FeatureCollection", "features": [ {"type": "Feature", "properties": {"norad_id": 47041, "name": "FENGYUN 1C DEB", "group": "fengyun-1c-debris", "lat": 25.210748470216206, "lon": -172.7727088333779, "alt_km": 542.4773346727243, "timestamp": "2025-12-03T10:52:57.744986+00:00", "meta": {"OBJECT_NAME": "FENGYUN 1C DEB", "OBJECT_ID": "1999-025FBT", "EPOCH": "2025-12-02T20:37:47.337024", "MEAN_MOTION": 15.06224459, "ECCENTRICITY": 0.0014528, "INCLINATION": 98.2564, "RA_OF_ASC_NODE": 2.6715, "ARG_OF_PERICENTER": 220.399, "MEAN_ANOMALY": 315.8837, "EPHEMERIS_TYPE": 0, "CLASSIFICATION_TYPE": "U", "NORAD_CAT_ID": 47041, "ELEMENT_SET_NO": 999, "REV_AT_EPOCH": 71040, "BSTAR": 0.0025566, "MEAN_MOTION_DOT": 0.00037681, "MEAN_MOTION_DDOT": 0}, "tle": {"line1": "1 47041U 99025FBT 25336.85957566  .00037681  00000+0  25566-2 0  9991", "line2": "2 47041  98.2564   2.6715 0014528 220.3990 315.8837 15.06224459710403"}}, "geometry": {"type": "Point", "coordinates": [-172.7727088333779, 25.210748470216206]}}, {"type": "Feature", "properties": {"norad_id": 47042, "name": "FENGYUN 1C DEB", "group": "fengyun-1c-debris", "lat": 68.83807893677076, "lon": 78.92631991201718, "alt_km": 782.4540744766427, "timestamp": "2025-12-03T10:52:57.744996+00:00", "meta": {"OBJECT_NAME": "FENGYUN 1C DEB", "OBJECT_ID": "1999-025FBU", "EPOCH": "2025-12-02T22:50:44.179008", "MEAN_MOTION": 14.22815893, "ECCENTRICITY": 0.0055519, "INCLINATION": 99.0007, "RA_OF_ASC_NODE": 234.2444, "ARG_OF_PERICENTER": 62.265, "MEAN_ANOMALY": 358.9067, "EPHEMERIS_TYPE": 0, "CLASSIFICATION_TYPE": "U", "NORAD_CAT_ID": 47042, "ELEMENT_SET_NO": 999, "REV_AT_EPOCH": 62382, "BSTAR": 0.00035803, "MEAN_MOTION_DOT": 7.7e-06, "MEAN_MOTION_DDOT": 0}, "tle": {"line1": "1 47042U 99025FBU 25336.95190022  .00000770  00000+0  35803-3 0  9994", "line2": "2 47042  99.0007 234.2444 0055519  62.2650 358.9067 14.22815893623825"}}, "geometry": {"type": "Point", "coordinates": [78.92631991201718, 68.83807893677076]}}, {"type": "Feature", "properties": {"norad_id": 47100, "name": "FENGYUN 1C DEB", "group": "fengyun-1c-debris", "lat": 3.294297737021424, "lon": 155.78013721626516, "alt_km": 663.8334748005036, "timestamp": "2025-12-03T10:52:57.745006+00:00", "meta": {"OBJECT_NAME": "FENGYUN 1C DEB", "OBJECT_ID": "1999-025FBY", "EPOCH": "2025-12-03T00:56:20.952096", "MEAN_MOTION": 14.51189075, "ECCENTRICITY": 0.0089418, "INCLINATION": 99.0205, "RA_OF_ASC_NODE": 155.8599, "ARG_OF_PERICENTER": 22.7728, "MEAN_ANOMALY": 337.7393, "EPHEMERIS_TYPE": 0, "CLASSIFICATION_TYPE": "U", "NORAD_CAT_ID": 47100, "ELEMENT_SET_NO": 999, "REV_AT_EPOCH": 26627, "BSTAR": 0.0022856, "MEAN_MOTION_DOT": 9.516e-05, "MEAN_MOTION_DDOT": 0}, "tle": {"line1": "1 47100U 99025FBY 25337.03913139  .00009516  00000+0  22856-2 0  9991", "line2": "2 47100  99.0205 155.8599 0089418  22.7728 337.7393 14.51189075266278"}}, "geometry": {"type": "Point", "coordinates": [155.78013721626516, 3.294297737021424]}}, {"type": "Feature", "properties": {"norad_id": 47104, "name": "FENGYUN 1C DEB", "group": "fengyun-1c-debris", "lat": -75.74975763014437, "lon": 45.10981104843853, "alt_km": 830.7068548185307, "timestamp": "2025-12-03T10:52:57.745016+00:00", "meta": {"OBJECT_NAME": "FENGYUN 1C DEB", "OBJECT_ID": "1999-025FCC", "EPOCH": "2025-11-28T07:45:04.770432", "MEAN_MOTION": 14.19406184, "ECCENTRICITY": 0.00413665, "INCLINATION": 98.9117, "RA_OF_ASC_NODE": 1.794, "ARG_OF_PERICENTER": 18.508, "MEAN_ANOMALY": 341.7589, "EPHEMERIS_TYPE": 0, "CLASSIFICATION_TYPE": "U", "NORAD_CAT_ID": 47104, "ELEMENT_SET_NO": 999, "REV_AT_EPOCH": 62168, "BSTAR": 0.00023651224, "MEAN_MOTION_DOT": 4.56e-06, "MEAN_MOTION_DDOT": 0}, "tle": {"line1": "1 47104U 99025FCC 25332.32297188  .00000456  00000+0  23651-3 0  9990", "line2": "2 47104  98.9117   1.7940 0041366  18.5080 341.7589 14.19406184621684"}}, "geometry": {"type": "Point", "coordinates": [45.10981104843853, -75.74975763014437]}}]}